{
  "type": "FeatureCollection",
  "features": [
    {
      "type": "Feature",
      "properties": {
        "norad_id": 35233,
        "name": "FENGYUN 1C DEB",
        "group": "fengyun-1c-debris",
        "lat": 28.182611946235024,
        "lon": 88.5242060804425,
        "alt_km": 776.2053807137754,
        "timestamp": "2025-12-19T22:41:52.681505+00:00",
        "meta_object_name": "FENGYUN 1C DEB",
        "meta_object_id": "1999-025DQR",
        "meta_epoch": "2025-12-15T05:27:26.337888",
        "meta_mean_motion": 14.41899105,
        "meta_eccentricity": 0.00416218,
        "meta_inclination": 98.7704,
        "meta_ra_of_asc_node": 88.4237,
        "meta_arg_of_pericenter": 253.7513,
        "meta_mean_anomaly": 136.1216,
        "meta_ephemeris_type": 0,
        "meta_classification_type": "U",
        "meta_norad_cat_id": 35233,
        "meta_element_set_no": 999,
        "meta_rev_at_epoch": 91212,
        "meta_bstar": 0.0013119788,
        "meta_mean_motion_dot": 4.295e-05,
        "meta_mean_motion_ddot": 0,
        "tle_line1": "1 35233U 99025DQR 25349.22738817  .00004295  00000+0  13120-2 0  9990",
        "tle_line2": "2 35233  98.7704  88.4237 0041621 253.7513 136.1216 14.41899105912122"
      },
      "geometry": {
        "type": "Point",
        "coordinates": [
          88.5242060804425,
          28.182611946235024
        ]
      }
    },
    {
      "type": "Feature",
      "properties": {
        "norad_id": 35234,
        "name": "FENGYUN 1C DEB",
        "group": "fengyun-1c-debris",
        "lat": 44.62719397419967,
        "lon": 13.705406228909654,
        "alt_km": 739.5732478882583,
        "timestamp": "2025-12-19T22:41:52.681516+00:00",
        "meta_object_name": "FENGYUN 1C DEB",
        "meta_object_id": "1999-025DQS",
        "meta_epoch": "2025-12-16T07:38:43.883808",
        "meta_mean_motion": 14.65576253,
        "meta_eccentricity": 0.00998673,
        "meta_inclination": 98.0689,
        "meta_ra_of_asc_node": 18.1928,
        "meta_arg_of_pericenter": 251.0842,
        "meta_mean_anomaly": 107.9515,
        "meta_ephemeris_type": 0,
        "meta_classification_type": "U",
        "meta_norad_cat_id": 35234,
        "meta_element_set_no": 999,
        "meta_rev_at_epoch": 94408,
        "meta_bstar": 0.00038790099,
        "meta_mean_motion_dot": 2.212e-05,
        "meta_mean_motion_ddot": 0,
        "tle_line1": "1 35234U 99025DQS 25350.31856347  .00002212  00000+0  38790-3 0  9990",
        "tle_line2": "2 35234  98.0689  18.1928 0099867 251.0842 107.9515 14.65576253944086"
      },
      "geometry": {
        "type": "Point",
        "coordinates": [
          13.705406228909654,
          44.62719397419967
        ]
      }
    },
    {
      "type": "Feature",
      "properties": {
        "norad_id": 35239,
        "name": "FENGYUN 1C DEB",
        "group": "fengyun-1c-debris",
        "lat": 77.11517712943042,
        "lon": 19.882800678262484,
        "alt_km": 1042.1396552152091,
        "timestamp": "2025-12-19T22:41:52.681526+00:00",
        "meta_object_name": "FENGYUN 1C DEB",
        "meta_object_id": "1999-025DQX",
        "meta_epoch": "2025-12-19T16:57:56.692224",
        "meta_mean_motion": 13.69231208,
        "meta_eccentricity": 0.0229615,
        "meta_inclination": 99.2654,
        "meta_ra_of_asc_node": 154.1251,
        "meta_arg_of_pericenter": 352.1975,
        "meta_mean_anomaly": 7.5623,
        "meta_ephemeris_type": 0,
        "meta_classification_type": "U",
        "meta_norad_cat_id": 35239,
        "meta_element_set_no": 999,
        "meta_rev_at_epoch": 58226,
        "meta_bstar": 0.00090569,
        "meta_mean_motion_dot": 9.02e-06,
        "meta_mean_motion_ddot": 0,
        "tle_line1": "1 35239U 99025DQX 25353.70690616  .00000902  00000+0  90569-3 0  9992",
        "tle_line2": "2 35239  99.2654 154.1251 0229615 352.1975   7.5623 13.69231208582266"
      },
      "geometry": {
        "type": "Point",
        "coordinates": [
          19.882800678262484,
          77.11517712943042
        ]
      }
    },
    {
      "type": "Feature",
      "properties": {
        "norad_id": 35240,
        "name": "FENGYUN 1C DEB",
        "group": "fengyun-1c-debris",
        "lat": -67.50525904687802,
        "lon": 113.37354608778733,
        "alt_km": 837.0878259164392,
        "timestamp": "2025-12-19T22:41:52.681537+00:00",
        "meta_object_name": "FENGYUN 1C DEB",
        "meta_object_id": "1999-025DQY",
        "meta_epoch": "2025-12-18T20:13:37.957152",
        "meta_mean_motion": 14.23345086,
        "meta_eccentricity": 0.00464497,
        "meta_inclination": 99.3505,
        "meta_ra_of_asc_node": 315.6486,
        "meta_arg_of_pericenter": 133.989,
        "meta_mean_anomaly": 226.5131,
        "meta_ephemeris_type": 0,
        "meta_classification_type": "U",
        "meta_norad_cat_id": 35240,
        "meta_element_set_no": 999,
        "meta_rev_at_epoch": 93251,
        "meta_bstar": 0.0014262232,
        "meta_mean_motion_dot": 3.222e-05,
        "meta_mean_motion_ddot": 0,
        "tle_line1": "1 35240U 99025DQY 25352.84280043  .00003222  00000+0  14262-2 0  9990",
        "tle_line2": "2 35240  99.3505 315.6486 0046449 133.9890 226.5131 14.23345086932516"
      },
      "geometry": {
        "type": "Point",
        "coordinates": [
          113.37354608778733,
          -67.50525904687802
        ]
      }
    },
    {
      "type": "Feature",
      "properties": {
        "norad_id": 35241,
        "name": "FENGYUN 1C DEB",
        "group": "fengyun-1c-debris",
        "lat": -2.071953079778149,
        "lon": -77.06147462080249,
        "alt_km": 986.7530930278217,
        "timestamp": "2025-12-19T22:41:52.681547+00:00",
        "meta_object_name": "FENGYUN 1C DEB",
        "meta_object_id": "1999-025DQZ",
        "meta_epoch": "2025-12-11T05:44:22.817472",
        "meta_mean_motion": 14.01929609,
        "meta_eccentricity": 0.0135502,
        "meta_inclination": 98.631,
        "meta_ra_of_asc_node": 274.3792,
        "meta_arg_of_pericenter": 212.8639,
        "meta_mean_anomaly": 146.4048,
        "meta_ephemeris_type": 0,
        "meta_classification_type": "U",
        "meta_norad_cat_id": 35241,
        "meta_element_set_no": 999,
        "meta_rev_at_epoch": 87585,
        "meta_bstar": 0.002553102,
        "meta_mean_motion_dot": 4.174e-05,
        "meta_mean_motion_ddot": 0,
        "tle_line1": "1 35241U 99025DQZ 25345.23915298  .00004174  00000+0  25531-2 0  9991",
        "tle_line2": "2 35241  98.6310 274.3792 0135502 212.8639 146.4048 14.01929609875856"
      },
      "geometry": {
        "type": "Point",
        "coordinates": [
          -77.06147462080249,
          -2.071953079778149
        ]
      }
    },
    {
      "type": "Feature",
      "properties": {
        "norad_id": 35242,
        "name": "FENGYUN 1C DEB",
        "group": "fengyun-1c-debris",
        "lat": -65.4462995321772,
        "lon": -156.108710331122,
        "alt_km": 1011.5696964872395,
        "timestamp": "2025-12-19T22:41:52.681557+00:00",
        "meta_object_name": "FENGYUN 1C DEB",
        "meta_object_id": "1999-025DRA",
        "meta_epoch": "2025-12-09T15:26:53.963232",
        "meta_mean_motion": 13.52332883,
        "meta_eccentricity": 0.0301834,
        "meta_inclination": 99.9692,
        "meta_ra_of_asc_node": 36.171,
        "meta_arg_of_pericenter": 196.4444,
        "meta_mean_anomaly": 317.6855,
        "meta_ephemeris_type": 0,
        "meta_classification_type": "U",
        "meta_norad_cat_id": 35242,
        "meta_element_set_no": 999,
        "meta_rev_at_epoch": 58085,
        "meta_bstar": 0.0024719,
        "meta_mean_motion_dot": 2.128e-05,
        "meta_mean_motion_ddot": 0,
        "tle_line1": "1 35242U 99025DRA 25343.64368013  .00002128  00000+0  24719-2 0  9996",
        "tle_line2": "2 35242  99.9692  36.1710 0301834 196.4444 317.6855 13.52332883580850"
      },
      "geometry": {
        "type": "Point",
        "coordinates": [
          -156.108710331122,
          -65.4462995321772
        ]
      }
    },
    {
      "type": "Feature",
      "properties": {
        "norad_id": 35243,
        "name": "FENGYUN 1C DEB",
        "group": "fengyun-1c-debris",
        "lat": -4.913697874892584,
        "lon": -107.10299160068487,
        "alt_km": 580.0141466564455,
        "timestamp": "2025-12-19T22:41:52.681567+00:00",
        "meta_object_name": "FENGYUN 1C DEB",
        "meta_object_id": "1999-025DRB",
        "meta_epoch": "2025-12-18T11:57:16.599456",
        "meta_mean_motion": 14.8717719,
        "meta_eccentricity": 0.00657221,
        "meta_inclination": 98.8806,
        "meta_ra_of_asc_node": 72.0495,
        "meta_arg_of_pericenter": 238.5919,
        "meta_mean_anomaly": 120.8856,
        "meta_ephemeris_type": 0,
        "meta_classification_type": "U",
        "meta_norad_cat_id": 35243,
        "meta_element_set_no": 999,
        "meta_rev_at_epoch": 91086,
        "meta_bstar": 0.0018937389,
        "meta_mean_motion_dot": 0.00017688,
        "meta_mean_motion_ddot": 0,
        "tle_line1": "1 35243U 99025DRB 25352.49810879  .00017688  00000+0  18937-2 0  9994",
        "tle_line2": "2 35243  98.8806  72.0495 0065722 238.5919 120.8856 14.87177190910863"
      },
      "geometry": {
        "type": "Point",
        "coordinates": [
          -107.10299160068487,
          -4.913697874892584
        ]
      }
    }
  ]
}